{
  "norad_id": 55137,
  "name": "2023-003E",
  "history": [
    {
      "epoch": "2026-04-30T14:22:12.534816Z",
      "apogee_km": 408.98913292236375,
      "perigee_km": 405.96654864768516,
      "latitude_deg": 2.9455179831195303e-05,
      "longitude_deg": 122.05327096996805,
      "height_km": 410.1977431233384,
      "semi_major_axis_km": 6785.614840785024,
      "eccentricity": 0.00022272,
      "inclination_deg": 97.1457,
      "raan_deg": 196.1487,
      "arg_perigee_deg": 286.3508,
      "mean_anomaly_deg": 73.7501,
      "mean_motion_rev_day": 15.53169861
    },
    {
      "epoch": "2026-05-02T12:45:21.748608Z",
      "apogee_km": 408.6962846551414,
      "perigee_km": 405.67003186455713,
      "latitude_deg": -7.299804984411096e-05,
      "longitude_deg": 146.2853893014142,
      "height_km": 410.2310373282402,
      "semi_major_axis_km": 6785.3201582598485,
      "eccentricity": 0.000223,
      "inclination_deg": 97.1451,
      "raan_deg": 198.0742,
      "arg_perigee_deg": 273.7067,
      "mean_anomaly_deg": 86.3931,
      "mean_motion_rev_day": 15.53271042
    },
    {
      "epoch": "2026-05-03T21:13:28.254720Z",
      "apogee_km": 408.5214166323012,
      "perigee_km": 405.4748909482496,
      "latitude_deg": -4.1707074117670516e-05,
      "longitude_deg": 19.273040054793842,
      "height_km": 410.2678924287048,
      "semi_major_axis_km": 6785.135153790275,
      "eccentricity": 0.0002245,
      "inclination_deg": 97.1446,
      "raan_deg": 199.4224,
      "arg_perigee_deg": 265.3354,
      "mean_anomaly_deg": 94.7643,
      "mean_motion_rev_day": 15.5333457
    },
    {
      "epoch": "2026-05-04T20:24:55.761696Z",
      "apogee_km": 408.43066250901666,
      "perigee_km": 405.31769937919944,
      "latitude_deg": -8.111541522896398e-05,
      "longitude_deg": 31.41880971242825,
      "height_km": 410.3161925914141,
      "semi_major_axis_km": 6785.011180944108,
      "eccentricity": 0.0002294,
      "inclination_deg": 97.1444,
      "raan_deg": 200.3852,
      "arg_perigee_deg": 259.0362,
      "mean_anomaly_deg": 101.0633,
      "mean_motion_rev_day": 15.53377143
    },
    {
      "epoch": "2026-05-05T21:09:06.168960Z",
      "apogee_km": 408.31130162237423,
      "perigee_km": 405.10885380169475,
      "latitude_deg": -4.802047700601066e-05,
      "longitude_deg": 20.386757423450735,
      "height_km": 410.3270536895968,
      "semi_major_axis_km": 6784.847077712035,
      "eccentricity": 0.000236,
      "inclination_deg": 97.1441,
      "raan_deg": 201.4124,
      "arg_perigee_deg": 252.8985,
      "mean_anomaly_deg": 107.201,
      "mean_motion_rev_day": 15.534335
    },
    {
      "epoch": "2026-05-06T20:20:28.589568Z",
      "apogee_km": 408.2670498433572,
      "perigee_km": 404.950666067989,
      "latitude_deg": -5.5840946510816834e-05,
      "longitude_deg": 32.553974066616945,
      "height_km": 410.3646397470167,
      "semi_major_axis_km": 6784.745857955673,
      "eccentricity": 0.0002444,
      "inclination_deg": 97.1442,
      "raan_deg": 202.3754,
      "arg_perigee_deg": 248.4315,
      "mean_anomaly_deg": 111.6678,
      "mean_motion_rev_day": 15.53468263
    },
    {
      "epoch": "2026-05-07T19:31:49.322784Z",
      "apogee_km": 408.2309494099409,
      "perigee_km": 404.8101250796626,
      "latitude_deg": 1.4607298719107971e-05,
      "longitude_deg": 44.727931299864785,
      "height_km": 410.4454442197399,
      "semi_major_axis_km": 6784.6575372448015,
      "eccentricity": 0.0002521,
      "inclination_deg": 97.144,
      "raan_deg": 203.3381,
      "arg_perigee_deg": 242.9194,
      "mean_anomaly_deg": 117.1803,
      "mean_motion_rev_day": 15.53498597
    },
    {
      "epoch": "2026-05-08T20:15:53.394336Z",
      "apogee_km": 408.1860358948652,
      "perigee_km": 404.62686440091784,
      "latitude_deg": -4.22896212424483e-05,
      "longitude_deg": 33.72236221335175,
      "height_km": 410.5162489204847,
      "semi_major_axis_km": 6784.543450147891,
      "eccentricity": 0.0002623,
      "inclination_deg": 97.1441,
      "raan_deg": 204.3653,
      "arg_perigee_deg": 237.22,
      "mean_anomaly_deg": 122.8801,
      "mean_motion_rev_day": 15.53537782
    },
    {
      "epoch": "2026-05-09T20:59:55.347360Z",
      "apogee_km": 408.1546255814337,
      "perigee_km": 404.4598172584483,
      "latitude_deg": -2.6132252280982922e-05,
      "longitude_deg": 22.725536252361028,
      "height_km": 410.5675203663622,
      "semi_major_axis_km": 6784.444221419941,
      "eccentricity": 0.0002723,
      "inclination_deg": 97.1442,
      "raan_deg": 205.3924,
      "arg_perigee_deg": 232.916,
      "mean_anomaly_deg": 127.1845,
      "mean_motion_rev_day": 15.53571865
    },
    {
      "epoch": "2026-05-10T20:11:10.505184Z",
      "apogee_km": 408.14136783716094,
      "perigee_km": 404.3122728969465,
      "latitude_deg": -4.789672599525524e-05,
      "longitude_deg": 34.92310168028354,
      "height_km": 410.6446852461331,
      "semi_major_axis_km": 6784.363820367053,
      "eccentricity": 0.0002822,
      "inclination_deg": 97.1444,
      "raan_deg": 206.3554,
      "arg_perigee_deg": 228.3836,
      "mean_anomaly_deg": 131.7176,
      "mean_motion_rev_day": 15.53599482
    },
    {
      "epoch": "2026-05-11T20:55:09.094656Z",
      "apogee_km": 408.13934948542556,
      "perigee_km": 404.1420530638343,
      "latitude_deg": -6.52260548999121e-05,
      "longitude_deg": 23.94043496445405,
      "height_km": 410.7182461414573,
      "semi_major_axis_km": 6784.27770127463,
      "eccentricity": 0.0002946,
      "inclination_deg": 97.1447,
      "raan_deg": 207.3826,
      "arg_perigee_deg": 224.2678,
      "mean_anomaly_deg": 135.834,
      "mean_motion_rev_day": 15.53629064
    },
    {
      "epoch": "2026-05-12T20:06:21.296736Z",
      "apogee_km": 408.1259598083452,
      "perigee_km": 404.0052351506374,
      "latitude_deg": 6.512948177457681e-07,
      "longitude_deg": 36.1503402987501,
      "height_km": 410.79192496359605,
      "semi_major_axis_km": 6784.2025974794915,
      "eccentricity": 0.0003037,
      "inclination_deg": 97.145,
      "raan_deg": 208.3456,
      "arg_perigee_deg": 219.925,
      "mean_anomaly_deg": 140.1781,
      "mean_motion_rev_day": 15.53654863
    },
    {
      "epoch": "2026-05-13T20:50:16.836288Z",
      "apogee_km": 408.13102732384596,
      "perigee_km": 403.84074800968483,
      "latitude_deg": -9.57152509969545e-05,
      "longitude_deg": 25.180427142795068,
      "height_km": 410.8655941156933,
      "semi_major_axis_km": 6784.122887666765,
      "eccentricity": 0.0003162,
      "inclination_deg": 97.1452,
      "raan_deg": 209.3728,
      "arg_perigee_deg": 216.0901,
      "mean_anomaly_deg": 144.0139,
      "mean_motion_rev_day": 15.53682245
    }
  ]
}